{"type":"FeatureCollection","features":[{"type":"Feature","geometry":{"type":"MultiLineString","coordinates":[[[-73.98594,40.75754],[-74.00097,40.73679],[-74.00503,40.72967],[-74.00708,40.71831],[-74.01039,40.71401],[-74.0118,40.71262],[-74.01251,40.71049],[-74.01516,40.70437],[-74.01515,40.70379],[-74.01488,40.70304],[-74.01294,40.70156]],[[-73.89828,40.88984],[-73.90068,40.88499],[-73.9017,40.88329],[-73.90598,40.87727],[-73.9079,40.87607],[-73.91366,40.87153],[-73.91959,40.86362],[-73.92409,40.86185],[-73.92521,40.86097],[-73.96732,40.80324],[-73.96777,40.80215],[-73.96806,40.80016],[-73.96851,40.79916],[-73.97569,40.78932],[-73.98004,40.78377],[-73.9808,40.78244],[-73.98177,40.77934],[-73.98214,40.77658],[-73.98213,40.76956],[-73.9817,40.76756],[-73.98198,40.76557],[-73.98257,40.76387],[-73.98466,40.76047],[-73.98554,40.75817],[-73.98594,40.75754]]]},"properties":{":id":"row-f5yz~kdf9_eizy",":version":"rv-m6ve-y8pu-rhnq",":created_at":"2025-12-08T20:37:16.737Z",":updated_at":"2025-12-08T20:37:16.737Z","objectid":"5","service_name":"Broadway / 7AV Local","service":"1","shape_stlength":"77623.93076359815"}},{"type":"Feature","geometry":{"type":"MultiLineString","coordinates":[[[-73.94368,40.82556],[-73.945,40.82368],[-73.9496,40.81424],[-73.95307,40.81019],[-73.9532,40.80956],[-73.95297,40.80811],[-73.9533,40.80723],[-73.96604,40.79002],[-74.00243,40.73999],[-74.00262,40.73943],[-74.00253,40.73892],[-73.99981,40.73441],[-73.99971,40.73359],[-74.00244,40.72943],[-74.00513,40.7229],[-74.00525,40.72196],[-74.00519,40.71898],[-74.00532,40.71852],[-74.01001,40.71253],[-74.01018,40.71213],[-74.01006,40.71162],[-74.00948,40.71116],[-74.0054,40.70901],[-74.00049,40.7029],[-73.9986,40.70143],[-73.99728,40.70083],[-73.9934,40.69974],[-73.99198,40.69948],[-73.98899,40.6993],[-73.9883,40.69906],[-73.98775,40.69866],[-73.98735,40.69804],[-73.98727,40.69736],[-73.98765,40.69166],[-73.98806,40.6903],[-73.98776,40.68974],[-73.98722,40.68938],[-73.98084,40.68704],[-73.97913,40.68676],[-73.97685,40.68697],[-73.97581,40.68686],[-73.96789,40.68377],[-73.95341,40.68065],[-73.90988,40.67828],[-73.90339,40.67839],[-73.89881,40.67786],[-73.89787,40.67758],[-73.89727,40.67698],[-73.89635,40.67364],[-73.89598,40.67293],[-73.89514,40.67238],[-73.89402,40.67223],[-73.86669,40.67623],[-73.86604,40.67649],[-73.8626,40.67872],[-73.86063,40.67931],[-73.84529,40.68028],[-73.84149,40.68093]]]},"properties":{":id":"row-36ii~ceiy.r87x",":version":"rv-298u-dmqi_945d",":created_at":"2025-12-08T20:37:16.737Z",":updated_at":"2025-12-08T20:37:16.737Z","objectid":"4","service_name":"8 Avenue Express","service":"A","shape_stlength":"101293.08009556108"}},{"type":"Feature","geometry":{"type":"MultiLineString","coordinates":[[[-74.00342,40.74013],[-73.97285,40.72723],[-73.9518,40.71418],[-73.94959,40.71405],[-73.94278,40.71469],[-73.94216,40.71459],[-73.94178,40.71419],[-73.94059,40.71171],[-73.93961,40.70629],[-73.93904,40.70564],[-73.93823,40.70549],[-73.93459,40.70592],[-73.9252,40.70746],[-73.92429,40.70741],[-73.91537,40.70191],[-73.90294,40.69495],[-73.90128,40.69386],[-73.9008,40.69306],[-73.90091,40.69222],[-73.9015,40.69145],[-73.90309,40.69002],[-73.90504,40.68768],[-73.90562,40.68622],[-73.90581,40.68451],[-73.90575,40.68381],[-73.90545,40.6831],[-73.9039,40.68084],[-73.90285,40.67777],[-73.90282,40.67653],[-73.90329,40.6746],[-73.90328,40.6741],[-73.90075,40.66477],[-73.89799,40.65367],[-73.89828,40.65252],[-73.9024,40.64576]]]},"properties":{":id":"row-gft9_iv6d.ig7d",":version":"rv-dey5_q5et-aj24",":created_at":"2025-12-08T20:37:16.737Z",":updated_at":"2025-12-08T20:37:16.737Z","objectid":"3","service_name":"14 St-Canarsie Local","service":"L","shape_stlength":"54130.28254204164"}},{"type":"Feature","geometry":{"type":"MultiLineString","coordinates":[[[-73.95576,40.68104],[-73.9559,40.6795],[-73.96136,40.66441],[-73.96177,40.66345],[-73.96227,40.6628],[-73.96236,40.66229]]]},"properties":{":id":"row-igf9~5py8-yjpb",":version":"rv-jj4y_krfe-5nbd",":created_at":"2025-12-08T20:37:16.737Z",":updated_at":"2025-12-08T20:37:16.737Z","objectid":"2","service_name":"Franklin Avenue Shuttle","service":"SF","shape_stlength":"7098.21908922379"}},{"type":"Feature","geometry":{"type":"MultiLineString","coordinates":[[[-74.00382,40.71271],[-74.00419,40.71233],[-74.0057,40.71181],[-74.00744,40.71051],[-74.01031,40.70762],[-74.01106,40.70648]],[[-74.00381,40.71271],[-74.00265,40.71452],[-73.99973,40.71835],[-73.99759,40.72084],[-73.99673,40.72115],[-73.9611,40.71022],[-73.95924,40.70886],[-73.95146,40.70613],[-73.89985,40.67681],[-73.88977,40.6783],[-73.87957,40.68155],[-73.87257,40.68352],[-73.87235,40.68371],[-73.8723,40.68403],[-73.87391,40.68911],[-73.87357,40.68949],[-73.87122,40.6904],[-73.86849,40.69108],[-73.86234,40.69211],[-73.85943,40.69249],[-73.85472,40.69279],[-73.85058,40.6942],[-73.84611,40.69507],[-73.84191,40.69517],[-73.83986,40.69541],[-73.83848,40.69593],[-73.83615,40.69751],[-73.83213,40.69966],[-73.82385,40.70138],[-73.82297,40.70142],[-73.82215,40.70124],[-73.81971,40.69958],[-73.81826,40.69879],[-73.81724,40.69844],[-73.81598,40.69834],[-73.81371,40.69872],[-73.80733,40.70059],[-73.79996,40.70241]]]},"properties":{":id":"row-xsdt-bugw.v77m",":version":"rv-32f4~bpk4-hgrh",":created_at":"2025-12-08T20:37:16.737Z",":updated_at":"2025-12-08T20:37:16.737Z","objectid":"1","service_name":"Nassau Street Express","service":"J","shape_stlength":"70656.68490562918"}},{"type":"Feature","geometry":{"type":"MultiLineString","coordinates":[[[-74.00482,40.71245],[-74.00348,40.71384],[-74.00278,40.71593],[-73.99732,40.72205],[-73.99648,40.7237],[-73.99369,40.72723],[-73.9907,40.73056],[-73.99042,40.73118],[-73.98988,40.7336],[-73.98992,40.73533],[-73.97961,40.74944]],[[-73.82716,40.85295],[-73.82924,40.85199],[-73.82971,40.85161],[-73.83052,40.84925],[-73.83127,40.84797],[-73.83176,40.84747],[-73.83727,40.84315],[-73.84203,40.84065],[-73.84952,40.83449],[-73.86201,40.83308],[-73.87702,40.82881],[-73.88485,40.82822],[-73.8856,40.82801],[-73.88612,40.82739],[-73.88676,40.82368],[-73.88764,40.82244],[-73.88932,40.82129],[-73.89205,40.82034],[-73.89895,40.81373],[-73.90384,40.81215],[-73.90667,40.8104],[-73.90721,40.80977],[-73.90846,40.80657],[-73.91146,40.80503],[-73.91242,40.80487],[-73.91324,40.80505],[-73.92688,40.81082],[-73.92881,40.81216],[-73.92987,40.81228],[-73.93085,40.81188],[-73.93187,40.81104],[-73.93485,40.80784],[-73.97545,40.75228],[-73.97601,40.75193],[-73.97816,40.75142],[-73.97961,40.74944]]]},"properties":{":id":"row-ke66_tftq-h9cg",":version":"rv-6bdj_mci7~m4j6",":created_at":"2025-12-08T20:37:16.737Z",":updated_at":"2025-12-08T20:37:16.737Z","objectid":"11","service_name":"Lexington Av Local","service":"6","shape_stlength":"79571.48821306424"}},{"type":"Feature","geometry":{"type":"MultiLineString","coordinates":[[[-73.97919,40.75276],[-73.98554,40.75539],[-73.98625,40.75593]]]},"properties":{":id":"row-j6qe~u395-2e5x",":version":"rv-27ha-kpe4_hshr",":created_at":"2025-12-08T20:37:16.737Z",":updated_at":"2025-12-08T20:37:16.737Z","objectid":"10","service_name":"42 Street Shuttle","service":"ST","shape_stlength":"2285.504908819597"}},{"type":"Feature","geometry":{"type":"MultiLineString","coordinates":[[[-73.96132,40.57754],[-73.96036,40.57773],[-73.95981,40.57801],[-73.95467,40.58501],[-73.95412,40.58632],[-73.95398,40.58872],[-73.95451,40.59227],[-73.96447,40.64434],[-73.9643,40.646],[-73.96136,40.65552],[-73.96131,40.65678],[-73.96184,40.66001],[-73.96238,40.66291],[-73.96267,40.6636],[-73.97634,40.68278],[-73.97658,40.68334],[-73.97741,40.68738],[-73.97783,40.68774],[-73.97884,40.68811],[-73.98105,40.68934],[-73.98233,40.69178]],[[-73.98233,40.69177],[-73.98233,40.69178]],[[-73.98233,40.69178],[-73.98234,40.69178]],[[-73.98233,40.69178],[-73.98577,40.69884],[-73.99483,40.71519],[-73.99478,40.71629],[-73.9917,40.72225],[-73.99165,40.72283],[-73.99193,40.72361],[-73.9922,40.72396],[-73.99276,40.72426],[-73.99688,40.72549],[-73.99843,40.72614],[-74.00183,40.72789],[-74.0023,40.72838],[-74.00246,40.7289],[-74.00221,40.72966],[-73.99918,40.73412],[-73.97961,40.76108],[-73.97953,40.76165],[-73.9799,40.76219],[-73.98388,40.76391],[-73.98415,40.76442],[-73.98404,40.76497],[-73.96593,40.78991],[-73.95319,40.80713],[-73.95284,40.808],[-73.95307,40.8096],[-73.95293,40.81013],[-73.94951,40.8141],[-73.94477,40.82377],[-73.9419,40.82759],[-73.94071,40.82959],[-73.93981,40.83013],[-73.93816,40.83033],[-73.93058,40.83001],[-73.92912,40.82967],[-73.92665,40.82828],[-73.92436,40.8275],[-73.92302,40.82744],[-73.92194,40.82792],[-73.92149,40.82846],[-73.92007,40.83144],[-73.91912,40.83285],[-73.91428,40.83798],[-73.91349,40.83899],[-73.91282,40.84029],[-73.91122,40.84468],[-73.91019,40.84574],[-73.90756,40.84767],[-73.90646,40.84878],[-73.90091,40.85576],[-73.89725,40.86217],[-73.89629,40.86356],[-73.89175,40.86933],[-73.89103,40.86996],[-73.88867,40.87149],[-73.88746,40.87284],[-73.8867,40.87402]]]},"properties":{":id":"row-9f6j.6rpt_t94n",":version":"rv-isak.yz4g_cvgq",":created_at":"2025-12-08T20:37:16.737Z",":updated_at":"2025-12-08T20:37:16.737Z","objectid":"9","service_name":"6 Avenue Express","service":"B","shape_stlength":"127602.11278784153"}},{"type":"Feature","geometry":{"type":"MultiLineString","coordinates":[[[-73.93294,40.66891],[-73.95532,40.67014],[-73.96358,40.67186],[-73.96715,40.67294],[-73.96927,40.67341],[-73.97027,40.67416],[-73.98107,40.68892],[-73.98933,40.69224],[-73.9989,40.69382],[-74.00242,40.69488],[-74.0052,40.69632],[-74.01093,40.70015],[-74.01378,40.70184],[-74.01444,40.70255],[-74.01468,40.70349],[-74.01436,40.70443],[-74.00906,40.71096],[-74.00852,40.71131],[-74.00528,40.71216],[-74.004,40.71318],[-74.00344,40.71393],[-74.00278,40.71593],[-73.99732,40.72205],[-73.99648,40.7237],[-73.99211,40.7291],[-73.99079,40.73043],[-73.99042,40.73118],[-73.9899,40.73348],[-73.98992,40.73533],[-73.97961,40.74944]],[[-73.87825,40.88669],[-73.8814,40.88259],[-73.88758,40.87722],[-73.88885,40.87462],[-73.88934,40.87402],[-73.89184,40.87207],[-73.89482,40.87055],[-73.89542,40.87004],[-73.90174,40.86188],[-73.90532,40.85607],[-73.91031,40.85052],[-73.91883,40.83858],[-73.92034,40.83729],[-73.92712,40.82577],[-73.92718,40.82479],[-73.92611,40.82164],[-73.92608,40.82112],[-73.92921,40.81397],[-73.93441,40.80844],[-73.97545,40.75228],[-73.97601,40.75193],[-73.97816,40.75142],[-73.97961,40.74944]]]},"properties":{":id":"row-7ma7_3zn2.w2sa",":version":"rv-3dz7~ddjs_k9b8",":created_at":"2025-12-08T20:37:16.737Z",":updated_at":"2025-12-08T20:37:16.737Z","objectid":"8","service_name":"Lexington Av Express","service":"4","shape_stlength":"106032.53413854787"}},{"type":"Feature","geometry":{"type":"MultiLineString","coordinates":[[[-73.98115,40.57743],[-73.98099,40.57656],[-73.9806,40.57619],[-73.97999,40.57599],[-73.97764,40.57572],[-73.97685,40.57582],[-73.97384,40.5767],[-73.96769,40.57635],[-73.96134,40.57759]],[[-73.96136,40.57765],[-73.96029,40.57788],[-73.95989,40.57813],[-73.95481,40.58506],[-73.95427,40.58638],[-73.95414,40.58872],[-73.95457,40.59173],[-73.96462,40.64427],[-73.96449,40.6459],[-73.96147,40.65584],[-73.96151,40.65706],[-73.96258,40.66306],[-73.96557,40.66757],[-73.96984,40.67345],[-73.96996,40.67385],[-73.97637,40.6827],[-73.97672,40.68359],[-73.97752,40.68733],[-73.9778,40.6876],[-73.98069,40.68895],[-73.98128,40.68941],[-73.98544,40.69787],[-73.9953,40.71534],[-73.99622,40.71615],[-73.99897,40.71729],[-74.0014,40.71907],[-74.00162,40.71952],[-73.99144,40.7318],[-73.9895,40.74029],[-73.98918,40.74296],[-73.98744,40.75243],[-73.98614,40.75652],[-73.98491,40.75883],[-73.97854,40.76753],[-73.97784,40.76818],[-73.97698,40.76859],[-73.9759,40.76879],[-73.97484,40.76871],[-73.97373,40.7683],[-73.97127,40.76683],[-73.96423,40.76389],[-73.9629,40.76375],[-73.96192,40.7641],[-73.96117,40.76481],[-73.94275,40.79008]]]},"properties":{":id":"row-ntu9_7hnw.75gy",":version":"rv-detc.9hhq-cgad",":created_at":"2025-12-08T20:37:16.737Z",":updated_at":"2025-12-08T20:37:16.737Z","objectid":"7","service_name":"Broadway Express","service":"Q","shape_stlength":"96999.90734425026"}},{"type":"Feature","geometry":{"type":"MultiLineString","coordinates":[[[-74.00612,40.75012],[-73.99971,40.75883],[-73.99852,40.75945],[-73.99753,40.7595],[-73.99652,40.75922],[-73.98481,40.75422],[-73.98306,40.75416],[-73.98047,40.75323],[-73.95689,40.74335],[-73.95574,40.743],[-73.94992,40.74198],[-73.94743,40.74259],[-73.94503,40.74357],[-73.94475,40.74383],[-73.94468,40.74426],[-73.94555,40.74561],[-73.94561,40.74595],[-73.94486,40.74819],[-73.94262,40.75094],[-73.94227,40.75118],[-73.94187,40.75122],[-73.93943,40.75021],[-73.93806,40.74946],[-73.93372,40.74529],[-73.93304,40.74491],[-73.91681,40.74292],[-73.91087,40.74468],[-73.90754,40.7453],[-73.90473,40.74544],[-73.86112,40.75007],[-73.84196,40.75569],[-73.83683,40.7577],[-73.83396,40.75825],[-73.82906,40.75984]]]},"properties":{":id":"row-ykem-k6yb~ybtq",":version":"rv-z23r-axzj-95hh",":created_at":"2025-12-08T20:37:16.737Z",":updated_at":"2025-12-08T20:37:16.737Z","objectid":"6","service_name":"Flushing Local","service":"7","shape_stlength":"57050.04858324696"}},{"type":"Feature","geometry":{"type":"MultiLineString","coordinates":[[[-73.98115,40.57743],[-73.98091,40.57656],[-73.98063,40.57628],[-73.97997,40.57605],[-73.97795,40.57579],[-73.97678,40.5759],[-73.97483,40.57651],[-73.97455,40.57689],[-73.97476,40.5792],[-73.97454,40.58185],[-73.97467,40.58337],[-73.97429,40.58927],[-73.97225,40.60425],[-73.97245,40.60591],[-73.97667,40.62821],[-73.97896,40.63966],[-73.97987,40.64565],[-73.97977,40.64649],[-73.97934,40.64718],[-73.97859,40.6478],[-73.97652,40.64881],[-73.97604,40.64936],[-73.97583,40.65003],[-73.97587,40.65181],[-73.97665,40.65529],[-73.97727,40.656],[-73.98,40.65763],[-73.98044,40.65844],[-73.98036,40.65896],[-73.97987,40.65988],[-73.97729,40.6631],[-73.97706,40.66392],[-73.97727,40.66448],[-73.97779,40.66495],[-73.98494,40.66859],[-73.98809,40.66946],[-73.99306,40.67185],[-73.99606,40.67364],[-73.99695,40.67439],[-73.99733,40.67492],[-73.99742,40.67596],[-73.99603,40.67889],[-73.99342,40.68234],[-73.98782,40.6906],[-73.98742,40.69145],[-73.9866,40.70518],[-73.98685,40.70627],[-73.98726,40.70716],[-73.98916,40.70965],[-73.98954,40.7104],[-73.98995,40.71182],[-73.99012,40.7137],[-73.98989,40.71511],[-73.98708,40.72057],[-73.98684,40.72142],[-73.98715,40.72218],[-73.98801,40.72278],[-73.99651,40.72537],[-73.99827,40.72606],[-74.00183,40.72789],[-74.0023,40.72838],[-74.00246,40.72899],[-74.00221,40.72966],[-73.99913,40.73419],[-73.98028,40.76009],[-73.97936,40.76107],[-73.97835,40.7613],[-73.97635,40.76069],[-73.96324,40.75504],[-73.9617,40.75419],[-73.9565,40.75059],[-73.95471,40.7497],[-73.95232,40.74899],[-73.94314,40.74721],[-73.94176,40.74734],[-73.93797,40.74876],[-73.93596,40.74982],[-73.93421,40.7513],[-73.93272,40.75186],[-73.92552,40.75211],[-73.91842,40.75369],[-73.91714,40.75384],[-73.91592,40.75378],[-73.91109,40.75302],[-73.9079,40.75331],[-73.90652,40.75309],[-73.88567,40.74426],[-73.88234,40.74261],[-73.87946,40.74056],[-73.87696,40.73627],[-73.87583,40.73528],[-73.8695,40.73332],[-73.8657,40.73145],[-73.85331,40.72683],[-73.85137,40.72576],[-73.84853,40.72356],[-73.84104,40.72016],[-73.83598,40.71766],[-73.83059,40.71418],[-73.828,40.71295],[-73.82178,40.71051],[-73.82084,40.70968],[-73.81935,40.70713],[-73.81814,40.70544],[-73.81747,40.70485],[-73.81648,40.70444],[-73.81526,40.70433],[-73.81414,40.70453],[-73.79569,40.70976],[-73.79031,40.71161],[-73.7854,40.71226],[-73.77715,40.71424]]]},"properties":{":id":"row-fkkv~y3ir.y5ns",":version":"rv-3eyw~seh5-x87y",":created_at":"2025-12-08T20:37:16.737Z",":updated_at":"2025-12-08T20:37:16.737Z","objectid":"17","service_name":"6 Avenue Local","service":"F","shape_stlength":"144263.22419393904"}},{"type":"Feature","geometry":{"type":"MultiLineString","coordinates":[[[-73.97941,40.64344],[-73.97978,40.64579],[-73.97952,40.64683],[-73.97866,40.64768],[-73.9765,40.64874],[-73.97582,40.64968],[-73.97575,40.6515],[-73.97646,40.65505]],[[-73.97741,40.66475],[-73.977,40.66405],[-73.97708,40.66333],[-73.97971,40.65999],[-73.98027,40.65898],[-73.98036,40.65844],[-73.97994,40.65767],[-73.97724,40.65606],[-73.97647,40.65507]],[[-73.989,40.68874]],[[-73.989,40.68874],[-73.99344,40.68218],[-73.99585,40.67904],[-73.99732,40.67602],[-73.99727,40.67498],[-73.99693,40.67447],[-73.99596,40.67365],[-73.9928,40.67179],[-73.98801,40.6695],[-73.98511,40.66874],[-73.97742,40.66476]],[[-73.989,40.68874]],[[-73.94394,40.7465],[-73.94881,40.74452],[-73.95367,40.74196],[-73.95485,40.74089],[-73.95523,40.74017],[-73.95539,40.73942],[-73.95541,40.73724],[-73.95416,40.73009],[-73.95362,40.72883],[-73.94983,40.72197],[-73.95007,40.72105],[-73.95199,40.71945],[-73.95227,40.71895],[-73.95232,40.71844],[-73.95023,40.70552],[-73.95024,40.70034],[-73.94836,40.69154],[-73.94835,40.69103],[-73.94856,40.69061],[-73.94912,40.69019],[-73.94985,40.68999],[-73.97862,40.68677],[-73.9815,40.68719],[-73.98744,40.68933],[-73.98832,40.68928],[-73.989,40.68874]]]},"properties":{":id":"row-hnrh.b5v6~krkk",":version":"rv-wt97_aegc-5dqk",":created_at":"2025-12-08T20:37:16.737Z",":updated_at":"2025-12-08T20:37:16.737Z","objectid":"16","service_name":"Brooklyn-Queens Crosstown Local","service":"G","shape_stlength":"55554.243543589524"}},{"type":"Feature","geometry":{"type":"MultiLineString","coordinates":[[[-73.88932,40.712],[-73.89028,40.70947],[-73.89265,40.70704],[-73.90686,40.70351],[-73.91119,40.69958],[-73.9331,40.69723],[-73.93392,40.69663],[-73.93431,40.69655],[-73.95146,40.70621],[-73.95918,40.70891],[-73.96104,40.71027],[-73.99145,40.71958],[-73.99197,40.72032],[-73.99154,40.72248],[-73.99215,40.72392],[-73.99318,40.72442],[-73.99749,40.72571],[-74.0016,40.72775],[-74.0023,40.72838],[-74.00246,40.7289],[-74.00239,40.72932],[-73.99913,40.73419],[-73.97612,40.76571],[-73.97506,40.7669],[-73.97399,40.76731],[-73.97308,40.76734],[-73.97175,40.76698],[-73.94916,40.75731],[-73.93605,40.75067],[-73.93517,40.75078],[-73.9339,40.75161],[-73.93275,40.75198],[-73.92634,40.75216],[-73.92469,40.75243],[-73.92395,40.753],[-73.91982,40.75811],[-73.91876,40.75856],[-73.91764,40.75846],[-73.90765,40.75368],[-73.88559,40.74432],[-73.88233,40.74271],[-73.87941,40.74065],[-73.87684,40.73628],[-73.87569,40.73531],[-73.86985,40.73354],[-73.86588,40.73162],[-73.85354,40.72702],[-73.85131,40.72583],[-73.84829,40.72353],[-73.84348,40.72134]]]},"properties":{":id":"row-czxx~qib7~h7gf",":version":"rv-hz5r~875w-4eyq",":created_at":"2025-12-08T20:37:16.737Z",":updated_at":"2025-12-08T20:37:16.737Z","objectid":"15","service_name":"6 Avenue Local","service":"M","shape_stlength":"97721.04830678036"}},{"type":"Feature","geometry":{"type":"MultiLineString","coordinates":[[[-74.00382,40.71271],[-74.00419,40.71233],[-74.0057,40.71181],[-74.00744,40.71051],[-74.01031,40.70762],[-74.01106,40.70648]],[[-74.00381,40.71271],[-74.00265,40.71452],[-73.99965,40.71845],[-73.99757,40.72086],[-73.99674,40.72115],[-73.96114,40.71024],[-73.95925,40.70887],[-73.9515,40.70616],[-73.89986,40.67683],[-73.88986,40.6783],[-73.87961,40.68156],[-73.8726,40.68353],[-73.87236,40.68372],[-73.8723,40.68405],[-73.87391,40.68915],[-73.87347,40.68956],[-73.8712,40.69043],[-73.8683,40.69114],[-73.86224,40.69215],[-73.85949,40.69251],[-73.8547,40.69282],[-73.85072,40.69419],[-73.84622,40.69508],[-73.84186,40.6952],[-73.83986,40.69544],[-73.83852,40.69594],[-73.83602,40.69762],[-73.83219,40.69967],[-73.83015,40.7002],[-73.82583,40.70091],[-73.82391,40.7014],[-73.82299,40.70145],[-73.82219,40.70128],[-73.81831,40.69884],[-73.81725,40.69847],[-73.81601,40.69837],[-73.81388,40.69871],[-73.80731,40.70063],[-73.79998,40.70244]]]},"properties":{":id":"row-akm7_jwyk.k8w3",":version":"rv-264x~jkic-i6u6",":created_at":"2025-12-08T20:37:16.737Z",":updated_at":"2025-12-08T20:37:16.737Z","objectid":"14","service_name":"Nassau Street Express","service":"Z","shape_stlength":"70651.59442793574"}},{"type":"Feature","geometry":{"type":"MultiLineString","coordinates":[[[-73.86958,40.84652],[-73.86781,40.85002],[-73.86685,40.87665],[-73.86378,40.88166],[-73.85507,40.8974],[-73.85003,40.9037]]]},"properties":{":id":"row-bmh8.sq65~t4zg",":version":"rv-q8cn.j8sd_bmdj",":created_at":"2025-12-08T20:37:16.737Z",":updated_at":"2025-12-08T20:37:16.737Z","objectid":"13","service_name":"Lexington Av Express","service":"5 Peak","shape_stlength":"22001.396947661535"}},{"type":"Feature","geometry":{"type":"MultiLineString","coordinates":[[[-73.94759,40.63219],[-73.95099,40.66397],[-73.95061,40.66873],[-73.95087,40.66947],[-73.95165,40.66985],[-73.95575,40.6702],[-73.96143,40.67137],[-73.96945,40.67349],[-73.97027,40.67416],[-73.98107,40.68892],[-73.98933,40.69224],[-73.9989,40.69382],[-74.00242,40.69488],[-74.00487,40.69611],[-74.01093,40.70015],[-74.01378,40.70184],[-74.01436,40.70242],[-74.01463,40.70305],[-74.01465,40.70377],[-74.01436,40.70443],[-74.00891,40.71111],[-74.00519,40.7122],[-74.00378,40.71342],[-74.00338,40.71407],[-74.00278,40.71593],[-73.99732,40.72205],[-73.99648,40.7237],[-73.99211,40.7291],[-73.99085,40.73035],[-73.99042,40.73118],[-73.9899,40.73348],[-73.98992,40.73533],[-73.97961,40.74944]],[[-73.82927,40.89077],[-73.83148,40.88718],[-73.83256,40.8857],[-73.84522,40.87101],[-73.85569,40.85853],[-73.85758,40.85668],[-73.8687,40.84771],[-73.86958,40.84652],[-73.87065,40.84421],[-73.87122,40.8436],[-73.87442,40.84112],[-73.87699,40.84071],[-73.87892,40.84121],[-73.88004,40.84023],[-73.88114,40.83975],[-73.88363,40.83945],[-73.88465,40.83914],[-73.88772,40.83723],[-73.8916,40.83067],[-73.89176,40.82991],[-73.89182,40.82499],[-73.89215,40.82445],[-73.90285,40.81895],[-73.90557,40.81773],[-73.90808,40.81627],[-73.90898,40.81596],[-73.91394,40.81619],[-73.91547,40.81569],[-73.91638,40.81567],[-73.92768,40.81864],[-73.92843,40.81842],[-73.9285,40.818],[-73.92796,40.8171],[-73.92921,40.81397],[-73.93441,40.80844],[-73.97545,40.75228],[-73.97601,40.75193],[-73.97816,40.75142],[-73.97961,40.74944]]]},"properties":{":id":"row-tbp8_4gdk~6asn",":version":"rv-t56m~upca-ijid",":created_at":"2025-12-08T20:37:16.737Z",":updated_at":"2025-12-08T20:37:16.737Z","objectid":"12","service_name":"Lexington Av Express","service":"5","shape_stlength":"128238.95785363218"}},{"type":"Feature","geometry":{"type":"MultiLineString","coordinates":[[[-73.8163,40.60927],[-73.81575,40.60768],[-73.80958,40.59332],[-73.80932,40.59185],[-73.80994,40.59036],[-73.81075,40.58952],[-73.81173,40.58889],[-73.82143,40.58505],[-73.837,40.58058]]]},"properties":{":id":"row-va6e~p666-dw6c",":version":"rv-w29t_gyy3.hf28",":created_at":"2025-12-08T20:37:16.737Z",":updated_at":"2025-12-08T20:37:16.737Z","objectid":"22","service_name":"Rockaway Park Shuttle","service":"SR","shape_stlength":"15617.842059676923"}},{"type":"Feature","geometry":{"type":"MultiLineString","coordinates":[[[-73.81943,40.70721],[-73.81803,40.70498],[-73.81611,40.70087],[-73.8152,40.70018],[-73.81347,40.69957],[-73.81232,40.69939],[-73.81118,40.69951],[-73.80448,40.70143],[-73.80003,40.70247]],[[-74.00766,40.71542],[-74.00769,40.71538]],[[-74.00766,40.71542],[-74.008,40.71467],[-74.00978,40.71247]],[[-73.94183,40.74735],[-73.94255,40.74721],[-73.9434,40.74727],[-73.9523,40.74902],[-73.95438,40.74961],[-73.95653,40.75064],[-73.96187,40.75434],[-73.96319,40.75506],[-73.97608,40.76057],[-73.98351,40.76357],[-73.98434,40.76377],[-73.98513,40.76358],[-74.00252,40.73974],[-74.0026,40.7392],[-74.00245,40.73873],[-73.99982,40.73441],[-73.99967,40.73366],[-74.00257,40.7291],[-74.00511,40.72287],[-74.00527,40.71855],[-74.00766,40.71542]],[[-73.94181,40.74736],[-73.93743,40.74898],[-73.93607,40.74976],[-73.93445,40.75113],[-73.93274,40.75181],[-73.92559,40.75205],[-73.91725,40.75379],[-73.91587,40.75372],[-73.91114,40.75298],[-73.90792,40.75327],[-73.90664,40.75308],[-73.88597,40.74432],[-73.88303,40.74292],[-73.88125,40.74184],[-73.87959,40.74057],[-73.87704,40.73623],[-73.87587,40.73523],[-73.86954,40.73327],[-73.86541,40.73127],[-73.85302,40.72661],[-73.85123,40.72556],[-73.84966,40.72423],[-73.84845,40.72343],[-73.84111,40.72011],[-73.83603,40.7176],[-73.83285,40.71543],[-73.83037,40.71398],[-73.8284,40.71304],[-73.82195,40.71051],[-73.82096,40.70966],[-73.8195,40.70718]]]},"properties":{":id":"row-jitm-zeb9.zniu",":version":"rv-4r9n_f94y_jka9",":created_at":"2025-12-08T20:37:16.737Z",":updated_at":"2025-12-08T20:37:16.737Z","objectid":"21","service_name":"8 Avenue Local","service":"E","shape_stlength":"82658.30457308324"}},{"type":"Feature","geometry":{"type":"MultiLineString","coordinates":[[[-73.94368,40.82556],[-73.945,40.82368],[-73.9496,40.81424],[-73.95307,40.81019],[-73.9532,40.80956],[-73.95297,40.80811],[-73.9533,40.80723],[-73.96604,40.79002],[-74.00243,40.73999],[-74.00262,40.73943],[-74.00253,40.73892],[-73.99981,40.73441],[-73.99971,40.73359],[-74.00244,40.72943],[-74.00513,40.7229],[-74.00525,40.72196],[-74.00519,40.71898],[-74.00532,40.71852],[-74.01001,40.71253],[-74.01018,40.71213],[-74.01013,40.71175],[-74.00964,40.71125],[-74.0054,40.70901],[-74.00049,40.7029],[-73.9986,40.70143],[-73.99728,40.70083],[-73.99308,40.69966],[-73.98916,40.69933],[-73.98794,40.69883],[-73.98741,40.69819],[-73.98727,40.69736],[-73.98765,40.69166],[-73.98806,40.69054],[-73.98795,40.68999],[-73.98756,40.68958],[-73.98689,40.68922],[-73.98084,40.68704],[-73.97913,40.68676],[-73.97685,40.68697],[-73.97581,40.68686],[-73.96789,40.68377],[-73.95293,40.68058],[-73.90988,40.67828],[-73.90339,40.67839],[-73.89867,40.67784],[-73.89782,40.67755],[-73.89727,40.67698],[-73.89609,40.67307],[-73.89549,40.67254],[-73.89453,40.67224],[-73.87106,40.6756]]]},"properties":{":id":"row-k6cw-v4ne.8mpf",":version":"rv-q6kg~2fu2~9hb4",":created_at":"2025-12-08T20:37:16.737Z",":updated_at":"2025-12-08T20:37:16.737Z","objectid":"20","service_name":"8 Avenue Local","service":"C","shape_stlength":"92661.23904982202"}},{"type":"Feature","geometry":{"type":"MultiLineString","coordinates":[[[-74.00149,40.71982],[-73.99144,40.7318],[-73.9895,40.74029],[-73.98918,40.74296],[-73.98744,40.75243],[-73.98614,40.75652],[-73.98491,40.75883],[-73.97898,40.76678],[-73.97849,40.76693],[-73.97791,40.76682],[-73.9748,40.7651],[-73.97184,40.76463],[-73.94986,40.75524],[-73.94709,40.75378],[-73.94195,40.75158],[-73.93763,40.74931],[-73.93699,40.74919],[-73.93644,40.74941],[-73.93499,40.75082],[-73.93364,40.75181],[-73.92053,40.76792],[-73.9113,40.77563]],[[-74.00149,40.71982],[-74.00825,40.71185],[-74.00873,40.71163],[-74.00991,40.71185],[-74.01037,40.71158],[-74.01389,40.7065],[-74.01402,40.70596],[-74.01334,40.70502],[-74.01276,40.70222]]]},"properties":{":id":"row-45vt-tkqd-x9rn",":version":"rv-dxch.xj4v~fhcm",":created_at":"2025-12-08T20:37:16.737Z",":updated_at":"2025-12-08T20:37:16.737Z","objectid":"19","service_name":"Broadway Local","service":"W","shape_stlength":"51871.98601416921"}},{"type":"Feature","geometry":{"type":"MultiLineString","coordinates":[[[-73.97902,40.68807],[-73.9785,40.68768],[-73.97837,40.6873],[-73.97807,40.68525],[-73.97831,40.68451],[-73.98425,40.67581],[-73.99253,40.66589],[-74.01676,40.64248],[-74.02236,40.63726],[-74.02391,40.63407],[-74.02884,40.62158],[-74.03131,40.61576]],[[-73.97901,40.68807],[-73.98118,40.68929],[-73.98242,40.69168],[-73.98283,40.692],[-73.98929,40.69234],[-73.98974,40.6926],[-73.9903,40.69351],[-73.99074,40.69379],[-74.00079,40.69663],[-74.01139,40.70078],[-74.01246,40.70145],[-74.01311,40.70363],[-74.01334,40.70502],[-74.014,40.70589],[-74.01394,40.70642],[-74.01037,40.71158],[-74.00991,40.71185],[-74.00887,40.71163],[-74.00825,40.71185],[-74.00149,40.71982]],[[-74.00149,40.71982],[-73.99144,40.7318],[-73.9895,40.74029],[-73.98918,40.74296],[-73.98744,40.75243],[-73.98614,40.75652],[-73.98491,40.75883],[-73.97898,40.76678],[-73.97849,40.76693],[-73.97791,40.76682],[-73.9748,40.7651],[-73.97184,40.76463],[-73.94986,40.75524],[-73.94626,40.75342]],[[-73.84352,40.72129],[-73.84844,40.72354],[-73.85153,40.72589],[-73.85364,40.727],[-73.86548,40.73139],[-73.86959,40.73338],[-73.87581,40.7353],[-73.87691,40.73625],[-73.87939,40.74052],[-73.88085,40.74168],[-73.88252,40.74274],[-73.88544,40.74418],[-73.90769,40.75363],[-73.91775,40.75843],[-73.9188,40.7585],[-73.91976,40.75807],[-73.92397,40.75287],[-73.92445,40.75247],[-73.9259,40.75213],[-73.93177,40.75201],[-73.93305,40.75185],[-73.93456,40.75116],[-73.93667,40.74944],[-73.93988,40.74794],[-73.9411,40.7481],[-73.9428,40.74921],[-73.94322,40.7499],[-73.94314,40.75145],[-73.9433,40.75188],[-73.94395,40.75239],[-73.94627,40.75342]]]},"properties":{":id":"row-zwh5~tw7i_dr9i",":version":"rv-g9a2.ss7t_sna2",":created_at":"2025-12-08T20:37:16.737Z",":updated_at":"2025-12-08T20:37:16.737Z","objectid":"18","service_name":"Broadway Local","service":"R","shape_stlength":"114757.83896293229"}},{"type":"Feature","geometry":{"type":"MultiLineString","coordinates":[[[-74.25257,40.51227],[-74.25074,40.51351],[-74.24944,40.51415]],[[-74.2525,40.51244],[-74.2508,40.51358],[-74.24872,40.51448]],[[-74.25014,40.51379],[-74.25254,40.51223]],[[-74.25014,40.51379],[-74.25251,40.51221]],[[-74.25014,40.51379],[-74.24944,40.51415]],[[-74.24944,40.51415],[-74.24932,40.5142]],[[-74.24944,40.51415],[-74.24932,40.5142]],[[-74.24932,40.5142],[-74.24845,40.51458]],[[-74.24872,40.51448],[-74.25072,40.51357],[-74.25271,40.51222]],[[-74.24845,40.51458],[-74.24872,40.51448]],[[-74.24801,40.51472],[-74.24845,40.51458]],[[-74.24801,40.51472],[-74.24356,40.51593],[-74.23972,40.51756],[-74.22999,40.51948]],[[-74.22964,40.51955],[-74.22999,40.51948]],[[-74.22962,40.51955],[-74.22536,40.5204],[-74.22185,40.52134]],[[-74.23497,40.51968],[-74.22999,40.51948]],[[-74.22185,40.52134],[-74.22134,40.52145]],[[-74.22134,40.52145],[-74.22561,40.52031],[-74.23973,40.51752],[-74.24356,40.51589],[-74.24801,40.51472]],[[-74.22098,40.52155],[-74.22134,40.52145]],[[-74.22098,40.52155],[-74.22052,40.52172]],[[-74.22052,40.52172],[-74.22185,40.52134]],[[-74.21985,40.52191],[-74.22052,40.52172]],[[-74.21985,40.52191],[-74.21933,40.52202]],[[-74.21933,40.52202],[-74.22098,40.52155]],[[-74.21933,40.52202],[-74.21612,40.52272],[-74.20244,40.52461],[-74.20068,40.52519],[-74.19958,40.52576],[-74.19863,40.52646],[-74.19756,40.52755]],[[-74.19756,40.52755],[-74.19888,40.52603]],[[-74.19756,40.52755],[-74.19562,40.5296]],[[-74.19541,40.52988],[-74.19879,40.52638],[-74.19971,40.52573],[-74.2013,40.52499],[-74.20325,40.52448],[-74.21655,40.52269],[-74.21985,40.52191]],[[-74.19541,40.52988],[-74.19562,40.5296]],[[-74.19419,40.53117],[-74.19541,40.52988]],[[-74.19419,40.53117],[-74.1928,40.53285]],[[-74.19319,40.53223],[-74.19419,40.53117]],[[-74.19319,40.53223],[-74.19286,40.53251]],[[-74.19319,40.53223],[-74.19125,40.53429],[-74.18936,40.53598],[-74.18752,40.53723],[-74.18509,40.53847],[-74.18262,40.53943],[-74.18067,40.53996],[-74.17176,40.54173],[-74.1696,40.54233],[-74.1664,40.54367],[-74.15894,40.54752]],[[-74.19286,40.53251],[-74.19562,40.5296]],[[-74.19286,40.53251],[-74.19078,40.53469],[-74.18933,40.53595],[-74.18772,40.53707],[-74.18506,40.53844],[-74.18113,40.53981],[-74.17181,40.54168],[-74.16969,40.54225],[-74.16637,40.54364],[-74.15852,40.54769]],[[-74.15894,40.54752],[-74.15447,40.54978]],[[-74.15852,40.54769],[-74.15894,40.54752]],[[-74.15852,40.54769],[-74.15486,40.54954]],[[-74.15794,40.54792],[-74.15833,40.54761]],[[-74.15486,40.54954],[-74.15448,40.54973]],[[-74.15448,40.54973],[-74.14936,40.55207],[-74.14475,40.55277],[-74.14265,40.55336],[-74.13949,40.55479],[-74.13746,40.55596],[-74.12554,40.56575],[-74.11971,40.57161],[-74.10489,40.58244]],[[-74.15448,40.54973],[-74.15207,40.55085]],[[-74.15447,40.54978],[-74.15486,40.54954]],[[-74.15447,40.54978],[-74.15043,40.55171]],[[-74.15038,40.55173],[-74.14848,40.55232],[-74.14512,40.55274],[-74.14307,40.55325],[-74.13952,40.55482],[-74.13752,40.55601],[-74.13524,40.55773],[-74.12561,40.56575],[-74.1199,40.57151],[-74.10533,40.58217]],[[-74.10489,40.58244],[-74.10533,40.58217]],[[-74.10489,40.58244],[-74.10465,40.58261]],[[-74.10465,40.58261],[-74.10107,40.58522]],[[-74.10465,40.58261],[-74.10427,40.58294]],[[-74.10427,40.58294],[-74.10533,40.58217]],[[-74.10149,40.58496],[-74.10427,40.58294]],[[-74.10107,40.58522],[-74.10149,40.58496]],[[-74.10107,40.58522],[-74.08973,40.59359],[-74.08858,40.59481],[-74.08765,40.59609],[-74.0865,40.5985]],[[-74.0865,40.5985],[-74.08601,40.59983]],[[-74.08642,40.59883],[-74.08695,40.59748],[-74.08778,40.59597],[-74.08979,40.59359],[-74.10149,40.58496]],[[-74.08642,40.59883],[-74.0865,40.5985]],[[-74.08633,40.59909],[-74.08642,40.59883]],[[-74.08627,40.59936],[-74.08633,40.59909]],[[-74.08619,40.59947],[-74.08633,40.59909]],[[-74.08619,40.59947],[-74.08601,40.59983]],[[-74.08601,40.59983],[-74.08494,40.60195],[-74.07914,40.60942],[-74.07493,40.61647],[-74.07399,40.61744],[-74.0721,40.6186],[-74.07133,40.61954],[-74.07112,40.62051],[-74.07136,40.62129],[-74.07192,40.62228],[-74.07392,40.62484]],[[-74.08651,40.60016],[-74.08627,40.59936]],[[-74.08583,40.60059],[-74.08627,40.59936]],[[-74.07211,40.61784],[-74.07209,40.61731]],[[-74.07207,40.61805],[-74.07179,40.61867]],[[-74.07217,40.61866],[-74.07199,40.61893]],[[-74.07129,40.62149],[-74.0718,40.62237]],[[-74.07138,40.62193],[-74.07234,40.62317]],[[-74.07168,40.62206],[-74.07099,40.62081]],[[-74.07168,40.62206],[-74.07344,40.62434]],[[-74.0718,40.62237],[-74.07168,40.62206]],[[-74.0718,40.62237],[-74.07213,40.62282]],[[-74.07233,40.62263],[-74.07314,40.62358]],[[-74.07192,40.6228],[-74.07234,40.62317]],[[-74.07213,40.62282],[-74.07312,40.62398]],[[-74.0718,40.62285],[-74.07232,40.62328]],[[-74.07228,40.62304],[-74.07213,40.62282]],[[-74.07228,40.62304],[-74.07145,40.6219]],[[-74.07234,40.62317],[-74.07244,40.62327]],[[-74.07244,40.62327],[-74.07186,40.62282]],[[-74.07232,40.62328],[-74.07159,40.62282]],[[-74.07232,40.62328],[-74.07238,40.62332]],[[-74.07238,40.62332],[-74.07232,40.62328]],[[-74.07262,40.62341],[-74.07228,40.62304]],[[-74.07262,40.62341],[-74.07244,40.62327]],[[-74.07275,40.62356],[-74.07262,40.62341]],[[-74.07275,40.62356],[-74.07238,40.62332]],[[-74.07312,40.62398],[-74.07275,40.62356]],[[-74.07344,40.62434],[-74.07312,40.62398]],[[-74.07344,40.62434],[-74.0743,40.62537]],[[-74.07376,40.62454],[-74.07192,40.62219],[-74.07139,40.62125],[-74.07116,40.62049],[-74.07135,40.61958],[-74.07209,40.61866],[-74.07382,40.61762],[-74.07506,40.61637],[-74.07951,40.60895],[-74.08517,40.60173],[-74.08619,40.59947]],[[-74.07392,40.62484],[-74.07376,40.62454]],[[-74.07392,40.62484],[-74.0743,40.62537]],[[-74.0743,40.62537],[-74.07491,40.62644],[-74.07532,40.62978],[-74.07523,40.63093],[-74.07443,40.63273],[-74.07428,40.63357],[-74.07502,40.63772]],[[-74.0745,40.63438],[-74.07444,40.63343]],[[-74.07463,40.63487],[-74.0745,40.63438]],[[-74.07453,40.63493],[-74.07434,40.63326],[-74.07526,40.63099],[-74.07534,40.62921],[-74.07495,40.62641],[-74.07376,40.62454]],[[-74.07453,40.63493],[-74.07456,40.63509]],[[-74.07456,40.63509],[-74.07453,40.63493]],[[-74.07456,40.63509],[-74.07469,40.63558]],[[-74.07516,40.63532],[-74.07527,40.63562]],[[-74.07469,40.63558],[-74.0745,40.63438]],[[-74.07522,40.63564],[-74.07512,40.63533]],[[-74.07484,40.63579],[-74.07463,40.63487]],[[-74.07479,40.6358],[-74.07463,40.63487]],[[-74.07504,40.63758],[-74.07469,40.63558]],[[-74.07504,40.63758],[-74.07456,40.63509]],[[-74.07523,40.63819],[-74.07504,40.63758]],[[-74.07523,40.63819],[-74.07502,40.63772]],[[-74.07523,40.63819],[-74.07538,40.63889],[-74.07526,40.6397]],[[-74.07526,40.6397],[-74.07513,40.64009]],[[-74.07526,40.6397],[-74.07504,40.64067]],[[-74.07513,40.64009],[-74.07534,40.63879],[-74.07502,40.63772]],[[-74.07508,40.6403],[-74.07513,40.64009]],[[-74.07508,40.6403],[-74.07504,40.64067]],[[-74.07508,40.6403],[-74.07459,40.64221]],[[-74.07504,40.64067],[-74.07467,40.64214]],[[-74.07467,40.64214],[-74.07464,40.64227]],[[-74.07459,40.64221],[-74.07396,40.6432],[-74.07326,40.64395]],[[-74.07459,40.64221],[-74.07317,40.64388]],[[-74.07464,40.64227],[-74.07413,40.64325],[-74.07338,40.64407]],[[-74.0744,40.64348],[-74.07349,40.6442]],[[-74.07567,40.64361],[-74.07504,40.64339],[-74.0744,40.64348]],[[-74.07567,40.64361],[-74.07578,40.64369]],[[-74.07567,40.64361],[-74.07481,40.64343],[-74.07426,40.64363]],[[-74.07578,40.64369],[-74.07608,40.6439]],[[-74.07578,40.64369],[-74.07617,40.64407]],[[-74.07608,40.6439],[-74.07491,40.64293],[-74.07467,40.64214]],[[-74.07608,40.6439],[-74.07664,40.64462]],[[-74.07332,40.64401],[-74.07464,40.64227]],[[-74.07343,40.64414],[-74.07429,40.64336],[-74.07508,40.64331]],[[-74.07352,40.64422],[-74.0744,40.64348]],[[-74.07358,40.64427],[-74.07402,40.64383]]]},"properties":{":id":"row-qzck~hte7~mugb",":version":"rv-n9s8~jefs-f44r",":created_at":"2025-12-08T20:37:16.737Z",":updated_at":"2025-12-08T20:37:16.737Z","objectid":"27","service_name":"Staten Island Railway","service":"SIR","shape_stlength":"177179.50894550324"}},{"type":"Feature","geometry":{"type":"MultiLineString","coordinates":[[[-73.98594,40.75754],[-74.00103,40.73672],[-74.00507,40.72962],[-74.00707,40.7184],[-74.01026,40.71411],[-74.01021,40.71382],[-74.00992,40.71354],[-74.00778,40.71251],[-74.006,40.71077],[-74.00582,40.71036],[-74.00598,40.71002],[-74.00976,40.70608],[-74.01003,40.70522],[-74.00966,40.70463],[-74.00672,40.70226],[-74.00494,40.70127],[-73.99804,40.69881],[-73.99142,40.69685],[-73.99121,40.69658],[-73.99109,40.69569],[-73.99038,40.69398],[-73.98934,40.69227],[-73.98092,40.68871],[-73.97031,40.67411],[-73.96972,40.67357],[-73.96913,40.6733],[-73.96726,40.67291],[-73.9636,40.67181],[-73.95537,40.67009],[-73.92623,40.66842],[-73.92571,40.66823],[-73.92516,40.66779],[-73.92449,40.66643],[-73.92406,40.66592],[-73.91916,40.66153],[-73.91835,40.66116],[-73.88316,40.66632]],[[-73.93685,40.824],[-73.93471,40.82308],[-73.93453,40.82282],[-73.93465,40.8224],[-73.93526,40.82155],[-73.93611,40.82073],[-73.95127,40.79993],[-73.95238,40.7986],[-73.9531,40.79823],[-73.96069,40.79672],[-73.96155,40.79692],[-73.96721,40.79932],[-73.96779,40.79938],[-73.9683,40.79924],[-73.96868,40.79893],[-73.97569,40.78932],[-73.98004,40.78377],[-73.98069,40.7827],[-73.98126,40.78113],[-73.98205,40.7777],[-73.98222,40.77461],[-73.98213,40.76956],[-73.9817,40.76756],[-73.98198,40.76557],[-73.98257,40.76387],[-73.98466,40.76047],[-73.98554,40.75817],[-73.98594,40.75754]]]},"properties":{":id":"row-rq8c~whv7-42vu",":version":"rv-5txf~pttn.ex65",":created_at":"2025-12-08T20:37:16.737Z",":updated_at":"2025-12-08T20:37:16.737Z","objectid":"26","service_name":"7 Avenue Express","service":"3","shape_stlength":"96290.94728194823"}},{"type":"Feature","geometry":{"type":"MultiLineString","coordinates":[[[-73.98594,40.75754],[-74.00103,40.73672],[-74.00507,40.72962],[-74.00707,40.7184],[-74.01026,40.71411],[-74.01021,40.71382],[-74.00992,40.71354],[-74.00778,40.71251],[-74.006,40.71077],[-74.00583,40.71031],[-74.00963,40.70626],[-74.00999,40.7056],[-74.01,40.7051],[-74.00958,40.70456],[-74.00687,40.70237],[-74.00528,40.70142],[-73.99804,40.69881],[-73.99154,40.69693],[-73.99121,40.69658],[-73.99109,40.69569],[-73.99038,40.69398],[-73.98934,40.69227],[-73.98101,40.6888],[-73.97031,40.67411],[-73.96972,40.67357],[-73.96896,40.67325],[-73.96186,40.67141],[-73.95573,40.67014],[-73.95158,40.66978],[-73.95086,40.66936],[-73.95068,40.66879],[-73.95104,40.66374],[-73.94766,40.63218]],[[-73.98594,40.75754],[-73.98554,40.75817],[-73.98466,40.76047],[-73.98257,40.76387],[-73.98198,40.76557],[-73.9817,40.76756],[-73.98213,40.76956],[-73.98214,40.77658],[-73.98177,40.77934],[-73.98073,40.78261],[-73.98004,40.78377],[-73.97569,40.78932],[-73.96852,40.7991],[-73.96794,40.79936],[-73.96721,40.79932],[-73.96155,40.79692],[-73.96069,40.79672],[-73.9598,40.7968],[-73.95264,40.79841],[-73.95127,40.79993],[-73.9381,40.81802],[-73.93763,40.81851],[-73.93688,40.81887],[-73.9317,40.81924],[-73.9294,40.81909],[-73.9162,40.81577],[-73.91545,40.81582],[-73.91396,40.81631],[-73.90973,40.81604],[-73.90837,40.81627],[-73.90562,40.81785],[-73.90294,40.81905],[-73.89213,40.82465],[-73.89197,40.82515],[-73.89192,40.82989],[-73.89179,40.8306],[-73.88804,40.83704],[-73.88745,40.83766],[-73.88444,40.83936],[-73.88346,40.8396],[-73.8817,40.83973],[-73.88051,40.84013],[-73.87899,40.84132],[-73.87859,40.84134],[-73.87696,40.84083],[-73.87451,40.84122],[-73.87095,40.84406],[-73.86788,40.85009],[-73.86691,40.87672],[-73.86384,40.8817],[-73.8552,40.89735],[-73.85009,40.90373]]]},"properties":{":id":"row-vkh4~pwxw.7zba",":version":"rv-tjt2_qzkh.bda7",":created_at":"2025-12-08T20:37:16.737Z",":updated_at":"2025-12-08T20:37:16.737Z","objectid":"25","service_name":"7 Avenue Express","service":"2","shape_stlength":"134418.98968148453"}},{"type":"Feature","geometry":{"type":"MultiLineString","coordinates":[[[-73.97902,40.68807],[-73.9785,40.68768],[-73.97837,40.6873],[-73.97807,40.68525],[-73.97831,40.68451],[-73.98425,40.67581],[-73.99253,40.66589],[-74.02026,40.63918],[-74.02067,40.63842],[-74.02045,40.63778],[-74.01988,40.63739],[-74.01252,40.63536],[-74.01126,40.63486],[-73.99944,40.62781],[-73.99763,40.62654],[-73.99595,40.62424],[-73.99536,40.62369],[-73.98436,40.617],[-73.98363,40.61639],[-73.98295,40.6155],[-73.98252,40.6146],[-73.98209,40.61306],[-73.97803,40.59125],[-73.97809,40.59014],[-73.97887,40.58744],[-73.98007,40.5837],[-73.98137,40.58065],[-73.98115,40.57743]],[[-73.97901,40.68807],[-73.98095,40.6891],[-73.98136,40.68954],[-73.98544,40.69787],[-73.9953,40.71534],[-73.99622,40.71615],[-73.99897,40.71729],[-74.00134,40.71902],[-74.00162,40.71946],[-74.00104,40.72037],[-73.99144,40.7318],[-73.9895,40.74029],[-73.98918,40.74296],[-73.98744,40.75243],[-73.98614,40.75652],[-73.98491,40.75883],[-73.97935,40.76642]],[[-73.9793,40.76649],[-73.97877,40.76688],[-73.97811,40.76689],[-73.97493,40.76514],[-73.97184,40.76463],[-73.94986,40.75524],[-73.94709,40.75378],[-73.94195,40.75158],[-73.93763,40.74931],[-73.93699,40.74919],[-73.93644,40.74941],[-73.93499,40.75082],[-73.93364,40.75181],[-73.92053,40.76792],[-73.9113,40.77563]]]},"properties":{":id":"row-nig5-9pwm-fquy",":version":"rv-nmn2.at2t.48eu",":created_at":"2025-12-08T20:37:16.737Z",":updated_at":"2025-12-08T20:37:16.737Z","objectid":"24","service_name":"Broadway Express","service":"N","shape_stlength":"107239.95093678469"}},{"type":"Feature","geometry":{"type":"MultiLineString","coordinates":[[[-73.97893,40.68816],[-73.98082,40.68916],[-73.98126,40.68964],[-73.98577,40.69884],[-73.99482,40.71516],[-73.99478,40.71629],[-73.99169,40.72228],[-73.99165,40.72283],[-73.99202,40.72377],[-73.9931,40.72439],[-73.99651,40.72537],[-73.99827,40.72606],[-74.00183,40.72789],[-74.0023,40.72838],[-74.00246,40.7289],[-74.00221,40.72966],[-73.99918,40.73412],[-73.97961,40.76108],[-73.97953,40.76165],[-73.9799,40.76219],[-73.98388,40.76391],[-73.98416,40.76453],[-73.98398,40.76508],[-73.96241,40.79472],[-73.95319,40.80713],[-73.95284,40.808],[-73.95307,40.8096],[-73.95293,40.81013],[-73.94951,40.8141],[-73.94477,40.82377],[-73.9419,40.82759],[-73.9406,40.8297],[-73.93966,40.83017],[-73.93786,40.83034],[-73.93048,40.83],[-73.92912,40.82967],[-73.92665,40.82828],[-73.92475,40.8276],[-73.92334,40.8274],[-73.92215,40.82777],[-73.92149,40.82846],[-73.92023,40.83115],[-73.91912,40.83285],[-73.91428,40.83798],[-73.91349,40.83899],[-73.91282,40.84029],[-73.91122,40.84468],[-73.91019,40.84574],[-73.90756,40.84767],[-73.90646,40.84878],[-73.90091,40.85576],[-73.89643,40.86338],[-73.89175,40.86933],[-73.89093,40.87003],[-73.88888,40.87131],[-73.88767,40.87258],[-73.88693,40.8736],[-73.88534,40.87643],[-73.88446,40.87683],[-73.88341,40.87677],[-73.87514,40.87305]],[[-73.97893,40.68816],[-73.97847,40.68787],[-73.97824,40.68745],[-73.97792,40.68538],[-73.97798,40.6848],[-73.98395,40.67596],[-73.99272,40.66547],[-74.0054,40.65318],[-74.0051,40.65271],[-73.99316,40.64559],[-73.99274,40.645],[-73.9929,40.64454],[-73.99404,40.64354],[-73.99425,40.64317],[-73.99435,40.63975],[-73.99535,40.63191],[-74.0018,40.60928],[-74.00165,40.60706],[-74.0014,40.60661],[-74.00098,40.60627],[-73.98575,40.59705],[-73.98531,40.59666],[-73.98346,40.58724],[-73.98322,40.58688],[-73.98235,40.58637],[-73.9818,40.58582],[-73.98121,40.58497],[-73.98086,40.58413],[-73.9808,40.58333],[-73.98096,40.58223],[-73.98152,40.58059],[-73.98115,40.57743]]]},"properties":{":id":"row-ci9w-i8ji_4izu",":version":"rv-6xc6_9vfq_rw45",":created_at":"2025-12-08T20:37:16.737Z",":updated_at":"2025-12-08T20:37:16.737Z","objectid":"23","service_name":"6 Avenue Express","service":"D","shape_stlength":"136463.1466545623"}},{"type":"Feature","geometry":{"type":"MultiLineString","coordinates":[[[-73.93934,40.84167],[-73.93994,40.83925],[-73.94011,40.83722],[-73.93992,40.8351],[-73.94,40.83444],[-73.9427,40.82762],[-73.94368,40.82556]]]},"properties":{":id":"row-8kpf-95um.3jun",":version":"rv-54kc-2is5.hitk",":created_at":"2025-12-08T20:37:16.737Z",":updated_at":"2025-12-08T20:37:16.737Z","objectid":"31","service_name":"8 Avenue Local","service":"C","shape_stlength":"6049.811270225977"}},{"type":"Feature","geometry":{"type":"MultiLineString","coordinates":[[[-73.80952,40.5933],[-73.80928,40.59196],[-73.80959,40.59091],[-73.81051,40.58972],[-73.81181,40.58885],[-73.82212,40.58481],[-73.83703,40.58057]],[[-73.75446,40.60458],[-73.75956,40.60176],[-73.7606,40.60095],[-73.76292,40.59861],[-73.77058,40.59405],[-73.77229,40.59342],[-73.78411,40.59223],[-73.78838,40.59243],[-73.79026,40.59236],[-73.79524,40.5912],[-73.8034,40.59024],[-73.80502,40.59044],[-73.80758,40.59114],[-73.80889,40.59213],[-73.80952,40.5933]],[[-73.84149,40.68093],[-73.84074,40.68082],[-73.84028,40.6805],[-73.83908,40.6785],[-73.82875,40.6571],[-73.81615,40.60893],[-73.80952,40.5933]],[[-73.82455,40.68617],[-73.82914,40.68559],[-73.83397,40.68369],[-73.8376,40.68181],[-73.84149,40.68093]],[[-73.91879,40.86847],[-73.92104,40.86782],[-73.92714,40.86563],[-73.93052,40.86371],[-73.93219,40.8621],[-73.93663,40.85578],[-73.93808,40.85157],[-73.94022,40.84635],[-73.94008,40.84573],[-73.93918,40.8449],[-73.93892,40.84434],[-73.93931,40.84177],[-73.93994,40.83925],[-73.94011,40.83722],[-73.93997,40.83456],[-73.9427,40.82762],[-73.94368,40.82556]]]},"properties":{":id":"row-hwbj.w7yb_kebd",":version":"rv-8p46.wqfh.ukag",":created_at":"2025-12-08T20:37:16.737Z",":updated_at":"2025-12-08T20:37:16.737Z","objectid":"30","service_name":"8 Avenue Express","service":"A","shape_stlength":"83974.93241524589"}}]}